SAUDISAT 2              
1 28371U 04025F   26177.23330549  .00000249  00000+0  66702-4 0  9993
2 28371  98.5508 177.4490 0023437 269.0233  90.8279 14.56688640167067
COSMOS 2407             
1 28380U 04028A   26177.23765598  .00000045  00000+0  30796-4 0  9990
2 28380  82.9604  68.1311 0038115 225.7261 253.5951 13.76335362101129
COSMOS 2414             
1 28521U 05002A   26177.11557954  .00000049  00000+0  27849-4 0  9991
2 28521  82.9493  36.8920 0038942 305.2235  54.5285 13.87926949 85054
INMARSAT 4-F1           
1 28628U 05009A   26176.47753098  .00000038  00000+0  00000+0 0  9994
2 28628   5.1798  42.7746 0002926  51.9837 168.8779  1.00272513 77753
SJ-7                    
1 28737U 05024A   26176.96849331  .00009740  00000+0  43248-3 0  9996
2 28737  97.7283 207.3081 0015402   8.2170 351.9315 15.21667162149363
CUBESAT XI-V            
1 28895U 05043F   26177.23557749  .00001423  00000+0  23139-3 0  9999
2 28895  98.2992 333.0476 0014267 171.8750 188.2691 14.72654434103085
HINODE (SOLAR-B)        
1 29479U 06041A   26177.31501139  .00000692  00000+0  12724-3 0  9993
2 29479  98.0544 193.3330 0015967 258.1665 101.7750 14.68634476 56210
SHIJIAN-6 02B (SJ-6 02B)
1 29506U 06046B   26177.34362257  .00001603  00000+0  12875-3 0  9998
2 29506  97.7162 206.3462 0015330  34.6939 325.5282 15.01398321 72116
DMSP 5D-3 F17 (USA 191) 
1 29522U 06050A   26177.29145043  .00000040  00000+0  42991-4 0  9994
2 29522  98.7378 183.6752 0010815  35.6006 324.5887 14.14993958 13713
LAPAN-TUBSAT            
1 29709U 07001A   26177.27762924  .00000391  00000+0  51392-4 0  9993
2 29709  98.1344 176.7063 0012662 150.4216 209.7717 14.85956933 52502
HAIYANG-1B              
1 31113U 07010A   26177.23442841  .00000096  00000+0  52195-4 0  9998
2 31113  98.3498 158.7289 0013638 169.2133 190.9345 14.31029067  1935
COSMO-SKYMED 2          
1 32376U 07059A   26177.27496147  .00000454  00000+0  63611-4 0  9998
2 32376  97.8888   0.7411 0001355  88.1483 271.9885 14.82152312  3350
CARTOSAT-2A             
1 32783U 08021A   26177.31366656  .00001104  00000+0  15516-3 0  9999
2 32783  97.7633 225.7109 0013359  82.5690 277.7039 14.79252798980159
CUTE-1.7+APD II (CO-65) 
1 32785U 08021C   26177.26407939  .00005208  00000+0  32855-3 0  9999
2 32785  97.8274 158.8717 0008853  11.3283 348.8143 15.09534115986562
SEEDS II (CO-66)        
1 32791U 08021J   26176.94816341  .00021509  00000+0  67552-3 0  9995
2 32791  97.7517 175.2655 0000426 222.9381 137.1827 15.33033686988631
YUBILEINY (RS30)        
1 32953U 08025A   26177.27296052  .00000111  00000+0  72492-3 0  9992
2 32953  82.5047 349.7875 0018583 293.0308  66.8812 12.43180220820827
FENGYUN 3A              
1 32958U 08026A   26177.28067157  .00000064  00000+0  50626-4 0  9994
2 32958  98.6884 117.9439 0009863 100.2197 260.0092 14.19572949936695
HUANJING 1A (HJ-1A)     
1 33320U 08041A   26177.26899493  .00001973  00000+0  24231-3 0  9991
2 33320  97.6684 162.7563 0020558 106.7677 253.5796 14.84008675959752
HUANJING 1B (HJ-1B)     
1 33321U 08041B   26177.24220969  .00000545  00000+0  72016-4 0  9995
2 33321  97.6520 165.8747 0036832 151.3777 208.9470 14.83329355959752
SHIJIAN-6 03A (SJ-6 03A)
1 33408U 08053A   26177.28213199  .00004654  00000+0  23722-3 0  9999
2 33408  97.8413 210.9187 0010724 349.8164  10.2849 15.17247027964345
SHIJIAN-6 03B (SJ-6 03B)
1 33409U 08053B   26177.27914515  .00002002  00000+0  14772-3 0  9999
2 33409  97.8560 197.3208 0019764  14.0987 346.0786 15.04324877964118
